OBJECT_NAME,OBJECT_ID,EPOCH,MEAN_MOTION,ECCENTRICITY,INCLINATION,RA_OF_ASC_NODE,ARG_OF_PERICENTER,MEAN_ANOMALY,EPHEMERIS_TYPE,CLASSIFICATION_TYPE,NORAD_CAT_ID,ELEMENT_SET_NO,REV_AT_EPOCH,BSTAR,MEAN_MOTION_DOT,MEAN_MOTION_DDOT
BLUEWALKER-3,2022-111AL,2026-07-18T04:00:58.743648,15.38627279,.00045917,53.2274,248.4873,279.5361,80.5125,0,U,53807,999,21497,.73739289E-4,.246E-4,0
